CTC2_L_00543016-03
1 64771U 25690UB  26037.47798611  .00000000  00000+0  00000-0 0  9997
2 64771  98.0000 180.0000 0000000   0.0000   0.0000 14.73473835    19
CTC2_L_00543016-04
1 64772U 23661QJ  26037.47798611  .00000000  00000+0  00000-0 0  9994
2 64772  98.0000 180.0000 0000000   0.0000  90.0000 14.73473835    19
CTC2_L_00543017-01
1 64773U 23960W   26037.47798611  .00000000  00000+0  00000-0 0  9997
2 64773  98.0000 192.0000 0000000   0.0000 192.0000 14.73473835    16
CTC2_L_00543017-02
1 64774U 24747MQ  26037.47798611  .00000000  00000+0  00000-0 0  9992
2 64774  98.0000 192.0000 0000000   0.0000 282.0000 14.73473835    17
CTC2_L_00543017-03
1 64775U 26106GK  26037.47798611  .00000000  00000+0  00000-0 0  9994
2 64775  98.0000 192.0000 0000000   0.0000  12.0000 14.73473835    19
CTC2_L_00543017-04
1 64776U 24318TU  26037.47798611  .00000000  00000+0  00000-0 0  9998
2 64776  98.0000 192.0000 0000000   0.0000 102.0000 14.73473835    10
CTC2_L_00543018-01
1 64777U 23597QU  26037.47798611  .00000000  00000+0  00000-0 0  9997
2 64777  98.0000 204.0000 0000000   0.0000 204.0000 14.73473835    18
CTC2_L_00543018-02
1 64778U 24631UZ  26037.47798611  .00000000  00000+0  00000-0 0  9998
2 64778  98.0000 204.0000 0000000   0.0000 294.0000 14.73473835    18
CTC2_L_00543018-03
1 64779U 23615EJ  26037.47798611  .00000000  00000+0  00000-0 0  9990
2 64779  98.0000 204.0000 0000000   0.0000  24.0000 14.73473835    10
CTC2_L_00543018-04
1 64780U 26862HY  26037.47798611  .00000000  00000+0  00000-0 0  9999
2 64780  98.0000 204.0000 0000000   0.0000 114.0000 14.73473835    12
CTC2_L_00543019-01
1 64781U 26710KS  26037.47798611  .00000000  00000+0  00000-0 0  9992
2 64781  98.0000 216.0000 0000000   0.0000 216.0000 14.73473835    19
CTC2_L_00543019-02
1 64782U 26953SY  26037.47798611  .00000000  00000+0  00000-0 0  9992
2 64782  98.0000 216.0000 0000000   0.0000 306.0000 14.73473835    10
CTC2_L_00543019-03
1 64783U 24192KD  26037.47798611  .00000000  00000+0  00000-0 0  9996
2 64783  98.0000 216.0000 0000000   0.0000  36.0000 14.73473835    11
CTC2_L_00543019-04
1 64784U 22410XR  26037.47798611  .00000000  00000+0  00000-0 0  9998
2 64784  98.0000 216.0000 0000000   0.0000 126.0000 14.73473835    12
CTC2_L_00543020-01
1 64785U 25709WR  26037.47798611  .00000000  00000+0  00000-0 0  9993
2 64785  98.0000 228.0000 0000000   0.0000 228.0000 14.73473835    19
CTC2_L_00543020-02
1 64786U 23758NQ  26037.47798611  .00000000  00000+0  00000-0 0  9996
2 64786  98.0000 228.0000 0000000   0.0000 318.0000 14.73473835    10
CTC2_L_00543020-03
1 64787U 24785YX  26037.47798611  .00000000  00000+0  00000-0 0  9998
2 64787  98.0000 228.0000 0000000   0.0000  48.0000 14.73473835    11
CTC2_L_00543020-04
1 64788U 25302XD  26037.47798611  .00000000  00000+0  00000-0 0  9995
2 64788  98.0000 228.0000 0000000   0.0000 138.0000 14.73473835    12
CTC2_L_00543021-01
1 64789U 24425CH  26037.47798611  .00000000  00000+0  00000-0 0  9991
2 64789  98.0000 240.0000 0000000   0.0000 240.0000 14.73473835    11
CTC2_L_00543021-02
1 64790U 24092OZ  26037.47798611  .00000000  00000+0  00000-0 0  9993
2 64790  98.0000 240.0000 0000000   0.0000 330.0000 14.73473835    13
CTC2_L_00543021-03
1 64791U 22938JM  26037.47798611  .00000000  00000+0  00000-0 0  9991
2 64791  98.0000 240.0000 0000000   0.0000  60.0000 14.73473835    14
CTC2_L_00543021-04
1 64792U 22383LT  26037.47798611  .00000000  00000+0  00000-0 0  9996
2 64792  98.0000 240.0000 0000000   0.0000 150.0000 14.73473835    15
CTC2_L_00543022-01
1 64793U 23983UE  26037.47798611  .00000000  00000+0  00000-0 0  9994
2 64793  98.0000 252.0000 0000000   0.0000 252.0000 14.73473835    12
CTC2_L_00543022-02
1 64794U 22978RM  26037.47798611  .00000000  00000+0  00000-0 0  9998
2 64794  98.0000 252.0000 0000000   0.0000 342.0000 14.73473835    13
CTC2_L_00543022-03
1 64795U 23429JS  26037.47798611  .00000000  00000+0  00000-0 0  9991
2 64795  98.0000 252.0000 0000000   0.0000  72.0000 14.73473835    14
CTC2_L_00543022-04
1 64796U 26943OO  26037.47798611  .00000000  00000+0  00000-0 0  9996
2 64796  98.0000 252.0000 0000000   0.0000 162.0000 14.73473835    15
CTC2_L_00543023-01
1 64797U 22616HN  26037.47798611  .00000000  00000+0  00000-0 0  9990
2 64797  98.0000 264.0000 0000000   0.0000 264.0000 14.73473835    12
CTC2_L_00543023-02
1 64798U 24185ZZ  26037.47798611  .00000000  00000+0  00000-0 0  9994
2 64798  98.0000 264.0000 0000000   0.0000 354.0000 14.73473835    13
CTC2_L_00543023-03
1 64799U 25606RN  26037.47798611  .00000000  00000+0  00000-0 0  9994
2 64799  98.0000 264.0000 0000000   0.0000  84.0000 14.73473835    14
CTC2_L_00543023-04
1 64800U 24549EX  26037.47798611  .00000000  00000+0  00000-0 0  9992
2 64800  98.0000 264.0000 0000000   0.0000 174.0000 14.73473835    17
CTC2_L_00543024-01
1 64801U 24317ZM  26037.47798611  .00000000  00000+0  00000-0 0  9996
2 64801  98.0000 276.0000 0000000   0.0000 276.0000 14.73473835    14
CTC2_L_00543024-02
1 64802U 22528FA  26037.47798611  .00000000  00000+0  00000-0 0  9999
2 64802  98.0000 276.0000 0000000   0.0000   6.0000 14.73473835    16
CTC2_L_00543024-03
1 64803U 24699LD  26037.47798611  .00000000  00000+0  00000-0 0  9991
2 64803  98.0000 276.0000 0000000   0.0000  96.0000 14.73473835    16
CTC2_L_00543024-04
1 64804U 24957DS  26037.47798611  .00000000  00000+0  00000-0 0  9999
2 64804  98.0000 276.0000 0000000   0.0000 186.0000 14.73473835    17
CTC2_L_00543025-01
1 64805U 26506NR  26037.47798611  .00000000  00000+0  00000-0 0  9992
2 64805  98.0000 288.0000 0000000   0.0000 288.0000 14.73473835    14
CTC2_L_00543025-02
1 64806U 22582QU  26037.47798611  .00000000  00000+0  00000-0 0  9993
2 64806  98.0000 288.0000 0000000   0.0000  18.0000 14.73473835    16
CTC2_L_00543025-03
1 64807U 24347EB  26037.47798611  .00000000  00000+0  00000-0 0  9995
2 64807  98.0000 288.0000 0000000   0.0000 108.0000 14.73473835    17
CTC2_L_00543025-04
1 64808U 22895YY  26037.47798611  .00000000  00000+0  00000-0 0  9992
2 64808  98.0000 288.0000 0000000   0.0000 198.0000 14.73473835    17
CTC2_L_00543026-01
1 64809U 24038BW  26037.47798611  .00000000  00000+0  00000-0 0  9994
2 64809  98.0000 300.0000 0000000   0.0000 300.0000 14.73473835    18
CTC2_L_00543026-02
1 64810U 24158RE  26037.47798611  .00000000  00000+0  00000-0 0  9999
2 64810  98.0000 300.0000 0000000   0.0000  30.0000 14.73473835    10
CTC2_L_00543026-03
1 64811U 25626SG  26037.47798611  .00000000  00000+0  00000-0 0  9991
2 64811  98.0000 300.0000 0000000   0.0000 120.0000 14.73473835    11
CTC2_L_00543026-04
1 64812U 22656TK  26037.47798611  .00000000  00000+0  00000-0 0  9992
2 64812  98.0000 300.0000 0000000   0.0000 210.0000 14.73473835    12
CTC2_L_00543027-01
1 64813U 25556CG  26037.47798611  .00000000  00000+0  00000-0 0  9995
2 64813  98.0000 312.0000 0000000   0.0000 312.0000 14.73473835    19
CTC2_L_00543027-02
1 64814U 23852MG  26037.47798611  .00000000  00000+0  00000-0 0  9993
2 64814  98.0000 312.0000 0000000   0.0000  42.0000 14.73473835    10
CTC2_L_00543027-03
1 64815U 25661GP  26037.47798611  .00000000  00000+0  00000-0 0  9994
2 64815  98.0000 312.0000 0000000   0.0000 132.0000 14.73473835    11
CTC2_L_00543027-04
1 64816U 24033VL  26037.47798611  .00000000  00000+0  00000-0 0  9997
2 64816  98.0000 312.0000 0000000   0.0000 222.0000 14.73473835    12
CTC2_L_00543028-01
1 64817U 24593DP  26037.47798611  .00000000  00000+0  00000-0 0  9999
2 64817  98.0000 324.0000 0000000   0.0000 324.0000 14.73473835    19
CTC2_L_00543028-02
1 64818U 26096IV  26037.47798611  .00000000  00000+0  00000-0 0  9990
2 64818  98.0000 324.0000 0000000   0.0000  54.0000 14.73473835    10
CTC2_L_00543028-03
1 64819U 22958WI  26037.47798611  .00000000  00000+0  00000-0 0  9994
2 64819  98.0000 324.0000 0000000   0.0000 144.0000 14.73473835    11
CTC2_L_00543028-04
1 64820U 26076XZ  26037.47798611  .00000000  00000+0  00000-0 0  9991
2 64820  98.0000 324.0000 0000000   0.0000 234.0000 14.73473835    13
CTC2_L_00543029-01
1 64821U 22115NK  26037.47798611  .00000000  00000+0  00000-0 0  9992
2 64821  98.0000 336.0000 0000000   0.0000 336.0000 14.73473835    10
CTC2_L_00543029-02
1 64822U 26708FD  26037.47798611  .00000000  00000+0  00000-0 0  9995
2 64822  98.0000 336.0000 0000000   0.0000  66.0000 14.73473835    11
CTC2_L_00543029-03
1 64823U 26091KG  26037.47798611  .00000000  00000+0  00000-0 0  9991
2 64823  98.0000 336.0000 0000000   0.0000 156.0000 14.73473835    12
CTC2_L_00543029-04
1 64824U 24172CA  26037.47798611  .00000000  00000+0  00000-0 0  9990
2 64824  98.0000 336.0000 0000000   0.0000 246.0000 14.73473835    13
CTC2_L_00543030-01
1 64825U 26254ZK  26037.47798611  .00000000  00000+0  00000-0 0  9994
2 64825  98.0000 348.0000 0000000   0.0000 348.0000 14.73473835    10
CTC2_L_00543030-02
1 64826U 22699MB  26037.47798611  .00000000  00000+0  00000-0 0  9994
2 64826  98.0000 348.0000 0000000   0.0000  78.0000 14.73473835    11
CTC2_L_00543030-03
1 64827U 22116OV  26037.47798611  .00000000  00000+0  00000-0 0  9999
2 64827  98.0000 348.0000 0000000   0.0000 168.0000 14.73473835    12
CTC2_L_00543030-04
1 64828U 23365DE  26037.47798611  .00000000  00000+0  00000-0 0  9997
2 64828  98.0000 348.0000 0000000   0.0000 258.0000 14.73473835    13
